*******************************************************************************
JPL/HORIZONS                 245 Vera (A885 CA)            2023-Sep-04 11:05:13
Rec #:     245 (+COV) Soln.date: 2023-Aug-22_21:32:35  # obs: 10903 (1885-2023)
 
IAU76/J2000 helio. ecliptic osc. elements (au, days, deg., period=Julian yrs):
 
  EPOCH=  2457240.5 ! 2015-Aug-06.00 (TDB)         Residual RMS= .29763
   EC= .1935782464343815   QR= 2.499628929701715   TP= 2456927.2791562062
   OM= 61.40034485496962   W=  329.0426819797889   IN= 5.1588458455369
   A= 3.099654639336711    MA= 56.56981615308965   ADIST= 3.699680348971707
   PER= 5.4573             N= .180606806           ANGMOM= .029712874
   DAN= 2.55874            DDN= 3.57735            L= 30.5455176
   B= -2.6510689           MOID= 1.50632           TP= 2014-Sep-26.7791562062
 
Asteroid physical parameters (km, seconds, rotational period in hours):
   GM= n.a.                RAD= 37.9745            ROTPER= 14.38
   H= 8.01                 G= .150                 B-V= .841
                           ALBEDO= .228            STYP= S

ASTEROID comments: 
1: soln ref.= JPL#138, OCC=0
2: source=ORB
*******************************************************************************


*******************************************************************************
Ephemeris / API_USER Mon Sep  4 11:05:13 2023 Pasadena, USA      / Horizons
*******************************************************************************
Target body name: 245 Vera (A885 CA)              {source: JPL#138}
Center body name: Solar System Barycenter (0)     {source: DE441}
Center-site name: BODY CENTER
*******************************************************************************
Start time      : A.D. 2023-Aug-12 00:00:00.0000 TDB
Stop  time      : A.D. 2023-Aug-13 00:00:00.0000 TDB
Step-size       : 2880 minutes
*******************************************************************************
Center geodetic : 0.0, 0.0, 0.0                   {E-lon(deg),Lat(deg),Alt(km)}
Center cylindric: 0.0, 0.0, 0.0                   {E-lon(deg),Dxy(km),Dz(km)}
Center radii    : (undefined)
Small perturbers: Yes                             {source: SB441-N16}
Output units    : KM-S
Calendar mode   : Mixed Julian/Gregorian
Output type     : GEOMETRIC cartesian states
Output format   : 2 (position and velocity)
Reference frame : Ecliptic of J2000.0
*******************************************************************************
Initial IAU76/J2000 heliocentric ecliptic osculating elements (au, days, deg.):
  EPOCH=  2457240.5 ! 2015-Aug-06.00 (TDB)         Residual RMS= .29763        
   EC= .1935782464343815   QR= 2.499628929701715   TP= 2456927.2791562062      
   OM= 61.40034485496962   W=  329.0426819797889   IN= 5.1588458455369         
  Equivalent ICRF heliocentric cartesian coordinates (au, au/d):
   X=-8.713385406584220E-01  Y= 2.421940567632200E+00  Z= 1.253476185000470E+00
  VX=-1.042488024935951E-02 VY=-1.599195549888900E-03 VZ= 1.408626117416721E-04
Asteroid physical parameters (km, seconds, rotational period in hours):        
   GM= n.a.                RAD= 37.9745            ROTPER= 14.38               
   H= 8.01                 G= .150                 B-V= .841                   
                           ALBEDO= .228            STYP= S                     
*******************************************************************************
JDTDB
   X     Y     Z
   VX    VY    VZ
*******************************************************************************
$$SOE
2460168.500000000 = A.D. 2023-Aug-12 00:00:00.0000 TDB 
 X =-2.500291015818764E+08 Y =-4.768015077311910E+08 Z =-1.157522838455886E+06
 VX= 1.341226000520836E+01 VY=-5.107120465607307E+00 VZ=-1.286763414547619E+00
$$EOE
*******************************************************************************
 
TIME

  Barycentric Dynamical Time ("TDB" or T_eph) output was requested. This
continuous coordinate time is equivalent to the relativistic proper time
of a clock at rest in a reference frame co-moving with the solar system
barycenter but outside the system's gravity well. It is the independent
variable in the solar system relativistic equations of motion.

  TDB runs at a uniform rate of one SI second per second and is independent
of irregularities in Earth's rotation.
 
CALENDAR SYSTEM

  Mixed calendar mode was active such that calendar dates after AD 1582-Oct-15
(if any) are in the modern Gregorian system. Dates prior to 1582-Oct-5 (if any)
are in the Julian calendar system, which is automatically extended for dates
prior to its adoption on 45-Jan-1 BC.  The Julian calendar is useful for
matching historical dates. The Gregorian calendar more accurately corresponds
to the Earth's orbital motion and seasons. A "Gregorian-only" calendar mode is
available if such physical events are the primary interest.

REFERENCE FRAME AND COORDINATES

  Ecliptic at the standard reference epoch

    Reference epoch: J2000.0
    X-Y plane: adopted Earth orbital plane at the reference epoch
               Note: IAU76 obliquity of 84381.448 arcseconds wrt ICRF X-Y plane
    X-axis   : ICRF
    Z-axis   : perpendicular to the X-Y plane in the directional (+ or -) sense
               of Earth's north pole at the reference epoch.

  Symbol meaning:

    JDTDB    Julian Day Number, Barycentric Dynamical Time
      X      X-component of position vector (km)
      Y      Y-component of position vector (km)
      Z      Z-component of position vector (km)
      VX     X-component of velocity vector (km/sec)                           
      VY     Y-component of velocity vector (km/sec)                           
      VZ     Z-component of velocity vector (km/sec)                           

ABERRATIONS AND CORRECTIONS

 Geometric state vectors have NO corrections or aberrations applied.

Computations by ...

    Solar System Dynamics Group, Horizons On-Line Ephemeris System
    4800 Oak Grove Drive, Jet Propulsion Laboratory
    Pasadena, CA  91109   USA

    General site: https://ssd.jpl.nasa.gov/
    Mailing list: https://ssd.jpl.nasa.gov/email_list.html
    System news : https://ssd.jpl.nasa.gov/horizons/news.html
    User Guide  : https://ssd.jpl.nasa.gov/horizons/manual.html
    Connect     : browser        https://ssd.jpl.nasa.gov/horizons/app.html#/x
                  API            https://ssd-api.jpl.nasa.gov/doc/horizons.html
                  command-line   telnet ssd.jpl.nasa.gov 6775
                  e-mail/batch   https://ssd.jpl.nasa.gov/ftp/ssd/hrzn_batch.txt
                  scripts        https://ssd.jpl.nasa.gov/ftp/ssd/SCRIPTS
    Author      : Jon.D.Giorgini@jpl.nasa.gov
*******************************************************************************
